[
    {
        "Altitude(m)": 624792.7391704979,
        "Argument of Periapsis(deg)": 0.0,
        "Eccentricity": 0.0,
        "Inclination(deg)": 60.0,
        "Latitude(deg)": -59.146987825384656,
        "Longitude(deg)": 114.026345509239,
        "Mean Anomaly(deg)": -98.18180000000004,
        "RAAN(deg)": 320.0,
        "Satellite Name": "Test1 1424",
        "Satellite Number": 1424,
        "Semi-Major Axis(m)": 6980739.136638005,
        "Time(s)": 0
    },
    {
        "Altitude(m)": 624842.1315213554,
        "Argument of Periapsis(deg)": 0.00010418945913296404,
        "Eccentricity": 0.0,
        "Inclination(deg)": 60.0,
        "Latitude(deg)": -59.2890721135175,
        "Longitude(deg)": 115.1558459643899,
        "Mean Anomaly(deg)": -97.56169385453819,
        "RAAN(deg)": 319.9995799508602,
        "Satellite Name": "Test1 1424",
        "Satellite Number": 1424,
        "Semi-Major Axis(m)": 6980739.136638005,
        "Time(s)": 10
    }
]